[{"OBJECT_NAME":"HAWK-6A","OBJECT_ID":"2023-011D","EPOCH":"2026-03-09T16:08:26.246400","MEAN_MOTION":15.21907632,"ECCENTRICITY":0.00021565,"INCLINATION":40.4983,"RA_OF_ASC_NODE":210.5544,"ARG_OF_PERICENTER":2.866,"MEAN_ANOMALY":357.2161,"EPHEMERIS_TYPE":0,"CLASSIFICATION_TYPE":"U","NORAD_CAT_ID":55327,"ELEMENT_SET_NO":999,"REV_AT_EPOCH":17268,"BSTAR":0.00032723111,"MEAN_MOTION_DOT":7.421e-5,"MEAN_MOTION_DDOT":0},{"OBJECT_NAME":"YAOGAN-39 03B","OBJECT_ID":"2023-152C","EPOCH":"2026-03-09T19:01:55.564608","MEAN_MOTION":15.17016078,"ECCENTRICITY":0.00191509,"INCLINATION":34.9895,"RA_OF_ASC_NODE":196.0494,"ARG_OF_PERICENTER":57.0378,"MEAN_ANOMALY":303.2174,"EPHEMERIS_TYPE":0,"CLASSIFICATION_TYPE":"U","NORAD_CAT_ID":57988,"ELEMENT_SET_NO":999,"REV_AT_EPOCH":13508,"BSTAR":0.00044094259,"MEAN_MOTION_DOT":8.936e-5,"MEAN_MOTION_DDOT":0}]
