HAWK-6A                 
1 55327U 23011D   26068.67252600  .00007421  00000+0  32723-3 0  9992
2 55327  40.4983 210.5544 0002157   2.8660 357.2161 15.21907632172685
YAOGAN-39 03B           
1 57988U 23152C   26068.79300422  .00008936  00000+0  44094-3 0  9998
2 57988  34.9895 196.0494 0019151  57.0378 303.2174 15.17016078135080
